ONEWEB-0162             
1 48056U 21025Q   26159.75033943  .00000293  00000+0  76863-3 0  9996
2 48056  87.8953 321.9038 0001970  93.8898 266.2457 13.13469258252433
ONEWEB-0155             
1 48057U 21025R   26159.45253220  .00000213  00000+0  54732-3 0  9999
2 48057  87.8953 321.9591 0001689  99.5927 260.5393 13.13469260252531
ONEWEB-0149             
1 48058U 21025S   26159.47454154 -.00000329  00000+0 -93531-3 0  9991
2 48058  87.8956 321.9579 0002017  93.6371 266.4989 13.13469758252342
ONEWEB-0148             
1 48059U 21025T   26159.43730127  .00000390  00000+0  10340-2 0  9997
2 48059  87.8947 321.9731 0002372  96.8710 263.2689 13.13469860252468
ONEWEB-0160             
1 48060U 21025U   26159.45422744  .00000205  00000+0  52518-3 0  9993
2 48060  87.8949 321.9656 0001679  70.3639 289.7671 13.13469862252415
ONEWEB-0163             
1 48061U 21025V   26159.74370063  .00000388  00000+0  10277-2 0  9999
2 48061  87.8954 321.9020 0001838 103.9819 256.1514 13.13470702252573
ONEWEB-0159             
1 48062U 21025W   26159.81141517  .00000203  00000+0  52162-3 0  9994
2 48062  87.8956 321.8821 0001810 102.8724 257.2608 13.13470596252507
ONEWEB-0164             
1 48063U 21025X   26159.48807654 -.00000149  00000+0 -44358-3 0  9998
2 48063  87.8961 321.9530 0001741  92.5419 267.5909 13.13470205252449
ONEWEB-0167             
1 48064U 21025Y   26159.74453573  .00000403  00000+0  10675-2 0  9990
2 48064  87.8947 321.9123 0001405 114.6353 245.4923 13.13471928252468
ONEWEB-0151             
1 48066U 21025AA  26159.46437486 -.00000076  00000+0 -24408-3 0  9994
2 48066  87.8948 321.9560 0001680  96.4574 263.6746 13.13469183252446
ONEWEB-0170             
1 48067U 21025AB  26159.47283975 -.00000221  00000+0 -64120-3 0  9995
2 48067  87.8950 321.9560 0001413  86.4662 273.6629 13.13469963252404
ONEWEB-0168             
1 48068U 21025AC  26159.45760746  .00000130  00000+0  32099-3 0  9997
2 48068  87.8958 321.9585 0001873 100.1736 259.9604 13.13469261252418
ONEWEB-0173             
1 48069U 21025AD  26159.44914735  .00000319  00000+0  83728-3 0  9990
2 48069  87.8952 321.9624 0001748 107.4730 252.6591 13.13469373252657
ONEWEB-0171             
1 48070U 21025AE  26159.48638658 -.00000220  00000+0 -63692-3 0  9994
2 48070  87.8952 321.9637 0001703  94.6667 265.4657 13.13470259252470
ONEWEB-0172             
1 48071U 21025AF  26159.46606823 -.00000100  00000+0 -30816-3 0  9991
2 48071  87.8955 321.9567 0001682  98.9477 261.1843 13.13470522253360
ONEWEB-0174             
1 48072U 21025AG  26159.75217389  .00000309  00000+0  81236-3 0  9990
2 48072  87.8952 321.8993 0001955  96.5587 263.5765 13.13469638252723
ONEWEB-0177             
1 48074U 21025AJ  26159.48977154 -.00000100  00000+0 -30766-3 0  9998
2 48074  87.8953 321.9543 0001971 100.4623 259.6728 13.13471056252533
ONEWEB-0178             
1 48075U 21025AK  26159.81323212  .00000251  00000+0  65275-3 0  9994
2 48075  87.8939 321.9035 0001608 101.9708 258.1601 13.13471777252625
ONEWEB-0108             
1 48076U 21025AL  26159.46776410 -.00000146  00000+0 -43468-3 0  9993
2 48076  87.8958 321.9493 0001963  89.2138 270.9216 13.13469584252508
ONEWEB-0169             
1 48077U 21025AM  26159.49993015  .00000098  00000+0  23281-3 0  9994
2 48077  87.8949 321.9519 0001923  95.9240 264.2108 13.13470228251166
ONEWEB-0176             
1 48210U 21031A   26159.80603889  .00000132  00000+0  32280-3 0  9990
2 48210  87.8957 291.3700 0001805 102.7535 257.3797 13.14502702247211
ONEWEB-0184             
1 48211U 21031B   26159.77907066 -.00000185  00000+0 -53234-3 0  9993
2 48211  87.8961 291.3758 0001201 118.9327 241.1923 13.14501943247182
ONEWEB-0179             
1 48212U 21031C   26159.81199772  .00000156  00000+0  46022-4 0  9990
2 48212  87.8982 288.9889 0218675 284.8172  72.8889 14.25516767247856
ONEWEB-0180             
1 48213U 21031D   26159.78224657 -.00000180  00000+0 -52066-3 0  9991
2 48213  87.8965 291.3721 0002045 114.0996 246.0347 13.14502387247114
ONEWEB-0218             
1 48214U 21031E   26159.80444781  .00000120  00000+0  29011-3 0  9993
2 48214  87.8964 291.3658 0001440 128.1061 232.0199 13.14501940247271
ONEWEB-0209             
1 48215U 21031F   26159.79333360 -.00000079  00000+0 -24816-3 0  9995
2 48215  87.8955 291.3858 0002028 105.7064 254.4290 13.14504982247270
ONEWEB-0198             
1 48216U 21031G   26159.77762745 -.00000161  00000+0 -46785-3 0  9998
2 48216  87.8951 291.3892 0001857 113.8374 246.2950 13.14502341247389
ONEWEB-0189             
1 48217U 21031H   26159.79017818 -.00000126  00000+0 -37412-3 0  9993
2 48217  87.8961 291.3715 0001853 111.0125 249.1203 13.14502685247121
