OBJECT_NAME,OBJECT_ID,EPOCH,MEAN_MOTION,ECCENTRICITY,INCLINATION,RA_OF_ASC_NODE,ARG_OF_PERICENTER,MEAN_ANOMALY,EPHEMERIS_TYPE,CLASSIFICATION_TYPE,NORAD_CAT_ID,ELEMENT_SET_NO,REV_AT_EPOCH,BSTAR,MEAN_MOTION_DOT,MEAN_MOTION_DDOT
ONEWEB-0162,2021-025Q,2026-06-08T18:00:29.326752,13.13469258,.000197,87.8953,321.9038,93.8898,266.2457,0,U,48056,999,25243,.76863E-3,.293E-5,0
ONEWEB-0155,2021-025R,2026-06-08T10:51:38.782080,13.13469260,.0001689,87.8953,321.9591,99.5927,260.5393,0,U,48057,999,25253,.54732E-3,.213E-5,0
ONEWEB-0149,2021-025S,2026-06-08T11:23:20.389056,13.13469758,.0002017,87.8956,321.9579,93.6371,266.4989,0,U,48058,999,25234,-.93531E-3,-.329E-5,0
ONEWEB-0148,2021-025T,2026-06-08T10:29:42.828864,13.13469860,.0002373,87.8947,321.9731,96.8710,263.2689,0,U,48059,999,25246,.1034E-2,.39E-5,0
ONEWEB-0160,2021-025U,2026-06-08T10:54:05.249952,13.13469862,.000168,87.8949,321.9656,70.3639,289.7671,0,U,48060,999,25241,.52518E-3,.205E-5,0
ONEWEB-0163,2021-025V,2026-06-08T17:50:55.734432,13.13470702,.0001838,87.8954,321.9020,103.9819,256.1514,0,U,48061,999,25257,.10277E-2,.388E-5,0
ONEWEB-0159,2021-025W,2026-06-08T19:28:26.270688,13.13470596,.000181,87.8956,321.8821,102.8724,257.2608,0,U,48062,999,25250,.52162E-3,.203E-5,0
ONEWEB-0164,2021-025X,2026-06-08T11:42:49.813056,13.13470205,.0001741,87.8961,321.9530,92.5419,267.5909,0,U,48063,999,25244,-.44358E-3,-.149E-5,0
ONEWEB-0167,2021-025Y,2026-06-08T17:52:07.887072,13.13471928,.0001405,87.8947,321.9123,114.6353,245.4923,0,U,48064,999,25246,.10675E-2,.403E-5,0
ONEWEB-0151,2021-025AA,2026-06-08T11:08:41.987040,13.13469183,.0001681,87.8948,321.9560,96.4574,263.6746,0,U,48066,999,25244,-.24408E-3,-.76E-6,0
ONEWEB-0170,2021-025AB,2026-06-08T11:20:53.354400,13.13469963,.0001413,87.8950,321.9560,86.4662,273.6629,0,U,48067,999,25240,-.6412E-3,-.221E-5,0
ONEWEB-0168,2021-025AC,2026-06-08T10:58:57.283680,13.13469261,.0001874,87.8958,321.9585,100.1736,259.9604,0,U,48068,999,25241,.32099E-3,.13E-5,0
ONEWEB-0173,2021-025AD,2026-06-08T10:46:46.331040,13.13469372,.0001749,87.8952,321.9624,107.4730,252.6591,0,U,48069,999,25265,.83728E-3,.319E-5,0
ONEWEB-0171,2021-025AE,2026-06-08T11:40:23.799648,13.13470259,.0001703,87.8952,321.9637,94.6667,265.4657,0,U,48070,999,25247,-.63692E-3,-.22E-5,0
ONEWEB-0172,2021-025AF,2026-06-08T11:11:08.295072,13.13470522,.0001683,87.8955,321.9567,98.9477,261.1843,0,U,48071,999,25336,-.30816E-3,-.1E-5,0
ONEWEB-0174,2021-025AG,2026-06-08T18:03:07.824096,13.13469638,.0001955,87.8952,321.8993,96.5587,263.5765,0,U,48072,999,25272,.81236E-3,.309E-5,0
ONEWEB-0177,2021-025AJ,2026-06-08T11:45:16.261056,13.13471056,.0001972,87.8953,321.9543,100.4623,259.6728,0,U,48074,999,25253,-.30766E-3,-.1E-5,0
ONEWEB-0178,2021-025AK,2026-06-08T19:31:03.255168,13.13471777,.0001608,87.8939,321.9035,101.9708,258.1601,0,U,48075,999,25262,.65275E-3,.251E-5,0
ONEWEB-0108,2021-025AL,2026-06-08T11:13:34.818240,13.13469584,.0001963,87.8958,321.9493,89.2138,270.9216,0,U,48076,999,25250,-.43468E-3,-.146E-5,0
ONEWEB-0169,2021-025AM,2026-06-08T11:59:53.964096,13.13470228,.0001923,87.8949,321.9519,95.9240,264.2108,0,U,48077,999,25116,.23281E-3,.98E-6,0
ONEWEB-0176,2021-031A,2026-06-08T19:20:41.760096,13.14502702,.0001805,87.8957,291.3700,102.7535,257.3797,0,U,48210,999,24721,.3228E-3,.132E-5,0
ONEWEB-0184,2021-031B,2026-06-08T18:41:51.705024,13.14501943,.0001201,87.8961,291.3758,118.9327,241.1923,0,U,48211,999,24718,-.53234E-3,-.185E-5,0
ONEWEB-0179,2021-031C,2026-06-08T19:29:16.603008,14.25516767,.0218675,87.8982,288.9889,284.8172,72.8889,0,U,48212,999,24785,.46022E-4,.156E-5,0
ONEWEB-0180,2021-031D,2026-06-08T18:46:26.103648,13.14502387,.0002045,87.8965,291.3721,114.0996,246.0347,0,U,48213,999,24711,-.52066E-3,-.18E-5,0
ONEWEB-0218,2021-031E,2026-06-08T19:18:24.290784,13.14501940,.000144,87.8964,291.3658,128.1061,232.0199,0,U,48214,999,24727,.29011E-3,.12E-5,0
ONEWEB-0209,2021-031F,2026-06-08T19:02:24.023040,13.14504982,.0002028,87.8955,291.3858,105.7064,254.4290,0,U,48215,999,24727,-.24816E-3,-.79E-6,0
ONEWEB-0198,2021-031G,2026-06-08T18:39:47.011680,13.14502341,.0001857,87.8951,291.3892,113.8374,246.2950,0,U,48216,999,24738,-.46785E-3,-.161E-5,0
ONEWEB-0189,2021-031H,2026-06-08T18:57:51.394752,13.14502685,.0001853,87.8961,291.3715,111.0125,249.1203,0,U,48217,999,24712,-.37412E-3,-.126E-5,0
